[{"OBJECT_NAME":"SAPPHIRE","OBJECT_ID":"2013-009C","EPOCH":"2026-04-04T01:18:22.711392","MEAN_MOTION":14.35220259,"ECCENTRICITY":0.00123232,"INCLINATION":98.4241,"RA_OF_ASC_NODE":275.2748,"ARG_OF_PERICENTER":108.2891,"MEAN_ANOMALY":251.9636,"EPHEMERIS_TYPE":0,"CLASSIFICATION_TYPE":"U","NORAD_CAT_ID":39088,"ELEMENT_SET_NO":999,"REV_AT_EPOCH":68594,"BSTAR":0.00010562478,"MEAN_MOTION_DOT":2.6e-6,"MEAN_MOTION_DDOT":0},{"OBJECT_NAME":"PRAETORIAN SDA_602","OBJECT_ID":"2025-203A","EPOCH":"2026-04-02T22:18:18.730944","MEAN_MOTION":13.84155046,"ECCENTRICITY":0.00049253,"INCLINATION":81.2997,"RA_OF_ASC_NODE":80.4757,"ARG_OF_PERICENTER":47.0603,"MEAN_ANOMALY":313.0966,"EPHEMERIS_TYPE":0,"CLASSIFICATION_TYPE":"U","NORAD_CAT_ID":65565,"ELEMENT_SET_NO":999,"REV_AT_EPOCH":2828,"BSTAR":-0.020589454,"MEAN_MOTION_DOT":-0.0002285,"MEAN_MOTION_DDOT":0},{"OBJECT_NAME":"PRAETORIAN SDA_603","OBJECT_ID":"2025-203B","EPOCH":"2026-04-04T02:08:03.611616","MEAN_MOTION":13.83896735,"ECCENTRICITY":0.00104204,"INCLINATION":81.3002,"RA_OF_ASC_NODE":79.2666,"ARG_OF_PERICENTER":39.5271,"MEAN_ANOMALY":320.6643,"EPHEMERIS_TYPE":0,"CLASSIFICATION_TYPE":"U","NORAD_CAT_ID":65566,"ELEMENT_SET_NO":999,"REV_AT_EPOCH":2845,"BSTAR":0.00033101027,"MEAN_MOTION_DOT":3.79e-6,"MEAN_MOTION_DDOT":0},{"OBJECT_NAME":"PRAETORIAN SDA_604","OBJECT_ID":"2025-203C","EPOCH":"2026-04-04T06:42:42.923808","MEAN_MOTION":13.83037548,"ECCENTRICITY":0.00065419,"INCLINATION":81.3023,"RA_OF_ASC_NODE":79.3889,"ARG_OF_PERICENTER":48.786,"MEAN_ANOMALY":311.3859,"EPHEMERIS_TYPE":0,"CLASSIFICATION_TYPE":"U","NORAD_CAT_ID":65567,"ELEMENT_SET_NO":999,"REV_AT_EPOCH":2846,"BSTAR":5.6465838e-5,"MEAN_MOTION_DOT":7.4e-7,"MEAN_MOTION_DDOT":0},{"OBJECT_NAME":"PRAETORIAN SDA_605","OBJECT_ID":"2025-203D","EPOCH":"2026-04-04T01:10:03.617472","MEAN_MOTION":13.83532328,"ECCENTRICITY":0.00090765,"INCLINATION":81.2987,"RA_OF_ASC_NODE":79.3378,"ARG_OF_PERICENTER":36.1621,"MEAN_ANOMALY":324.0147,"EPHEMERIS_TYPE":0,"CLASSIFICATION_TYPE":"U","NORAD_CAT_ID":65568,"ELEMENT_SET_NO":999,"REV_AT_EPOCH":2844,"BSTAR":6.5775386e-5,"MEAN_MOTION_DOT":8.4e-7,"MEAN_MOTION_DDOT":0},{"OBJECT_NAME":"PRAETORIAN SDA_606","OBJECT_ID":"2025-203E","EPOCH":"2026-04-03T23:05:07.543104","MEAN_MOTION":13.83531596,"ECCENTRICITY":0.00067716,"INCLINATION":81.3022,"RA_OF_ASC_NODE":79.6175,"ARG_OF_PERICENTER":41.029,"MEAN_ANOMALY":319.1374,"EPHEMERIS_TYPE":0,"CLASSIFICATION_TYPE":"U","NORAD_CAT_ID":65569,"ELEMENT_SET_NO":999,"REV_AT_EPOCH":2842,"BSTAR":5.9662599e-5,"MEAN_MOTION_DOT":7.8e-7,"MEAN_MOTION_DDOT":0},{"OBJECT_NAME":"PRAETORIAN SDA_607","OBJECT_ID":"2025-203F","EPOCH":"2026-04-04T02:03:21.943296","MEAN_MOTION":13.84343348,"ECCENTRICITY":0.00097402,"INCLINATION":81.2994,"RA_OF_ASC_NODE":79.2728,"ARG_OF_PERICENTER":39.0961,"MEAN_ANOMALY":321.0898,"EPHEMERIS_TYPE":0,"CLASSIFICATION_TYPE":"U","NORAD_CAT_ID":65570,"ELEMENT_SET_NO":999,"REV_AT_EPOCH":2845,"BSTAR":-0.0050729237,"MEAN_MOTION_DOT":-5.653e-5,"MEAN_MOTION_DDOT":0},{"OBJECT_NAME":"PRAETORIAN SDA_608","OBJECT_ID":"2025-203G","EPOCH":"2026-04-04T00:54:52.409376","MEAN_MOTION":13.83890312,"ECCENTRICITY":0.00069841,"INCLINATION":81.2975,"RA_OF_ASC_NODE":79.4491,"ARG_OF_PERICENTER":48.0301,"MEAN_ANOMALY":312.1449,"EPHEMERIS_TYPE":0,"CLASSIFICATION_TYPE":"U","NORAD_CAT_ID":65571,"ELEMENT_SET_NO":999,"REV_AT_EPOCH":2843,"BSTAR":6.556548e-5,"MEAN_MOTION_DOT":8.5e-7,"MEAN_MOTION_DDOT":0},{"OBJECT_NAME":"PRAETORIAN SDA_609","OBJECT_ID":"2025-203H","EPOCH":"2026-04-04T06:49:50.412864","MEAN_MOTION":13.84301339,"ECCENTRICITY":0.00078134,"INCLINATION":81.3019,"RA_OF_ASC_NODE":79.2237,"ARG_OF_PERICENTER":40.4472,"MEAN_ANOMALY":319.7265,"EPHEMERIS_TYPE":0,"CLASSIFICATION_TYPE":"U","NORAD_CAT_ID":65572,"ELEMENT_SET_NO":999,"REV_AT_EPOCH":2847,"BSTAR":0.0002911453,"MEAN_MOTION_DOT":3.37e-6,"MEAN_MOTION_DDOT":0},{"OBJECT_NAME":"PRAETORIAN SDA_610","OBJECT_ID":"2025-203J","EPOCH":"2026-04-04T02:14:45.741408","MEAN_MOTION":13.83913136,"ECCENTRICITY":0.00074686,"INCLINATION":81.2977,"RA_OF_ASC_NODE":79.3624,"ARG_OF_PERICENTER":44.1937,"MEAN_ANOMALY":315.9815,"EPHEMERIS_TYPE":0,"CLASSIFICATION_TYPE":"U","NORAD_CAT_ID":65573,"ELEMENT_SET_NO":999,"REV_AT_EPOCH":2844,"BSTAR":4.7753087e-5,"MEAN_MOTION_DOT":6.5e-7,"MEAN_MOTION_DDOT":0},{"OBJECT_NAME":"PRAETORIAN SDA_611","OBJECT_ID":"2025-203K","EPOCH":"2026-04-04T06:42:59.417568","MEAN_MOTION":13.83299302,"ECCENTRICITY":0.00066759,"INCLINATION":81.2977,"RA_OF_ASC_NODE":79.2887,"ARG_OF_PERICENTER":51.3968,"MEAN_ANOMALY":308.7786,"EPHEMERIS_TYPE":0,"CLASSIFICATION_TYPE":"U","NORAD_CAT_ID":65574,"ELEMENT_SET_NO":999,"REV_AT_EPOCH":2846,"BSTAR":0.00015787491,"MEAN_MOTION_DOT":1.85e-6,"MEAN_MOTION_DDOT":0},{"OBJECT_NAME":"PRAETORIAN SDA_612","OBJECT_ID":"2025-203L","EPOCH":"2026-04-04T05:12:44.576640","MEAN_MOTION":13.85029144,"ECCENTRICITY":0.00101426,"INCLINATION":81.2999,"RA_OF_ASC_NODE":79.1151,"ARG_OF_PERICENTER":39.2586,"MEAN_ANOMALY":320.9305,"EPHEMERIS_TYPE":0,"CLASSIFICATION_TYPE":"U","NORAD_CAT_ID":65575,"ELEMENT_SET_NO":999,"REV_AT_EPOCH":2847,"BSTAR":0.0002785816,"MEAN_MOTION_DOT":3.27e-6,"MEAN_MOTION_DDOT":0},{"OBJECT_NAME":"PRAETORIAN SDA_613","OBJECT_ID":"2025-203M","EPOCH":"2026-04-04T04:35:42.240768","MEAN_MOTION":13.82945101,"ECCENTRICITY":0.00066805,"INCLINATION":81.2968,"RA_OF_ASC_NODE":79.3238,"ARG_OF_PERICENTER":45.3514,"MEAN_ANOMALY":314.8185,"EPHEMERIS_TYPE":0,"CLASSIFICATION_TYPE":"U","NORAD_CAT_ID":65576,"ELEMENT_SET_NO":999,"REV_AT_EPOCH":2845,"BSTAR":6.0929536e-5,"MEAN_MOTION_DOT":7.8e-7,"MEAN_MOTION_DDOT":0},{"OBJECT_NAME":"PRAETORIAN SDA_614","OBJECT_ID":"2025-203N","EPOCH":"2026-04-04T04:37:11.018496","MEAN_MOTION":13.84769038,"ECCENTRICITY":0.00080195,"INCLINATION":81.2983,"RA_OF_ASC_NODE":79.1974,"ARG_OF_PERICENTER":39.4409,"MEAN_ANOMALY":320.7331,"EPHEMERIS_TYPE":0,"CLASSIFICATION_TYPE":"U","NORAD_CAT_ID":65577,"ELEMENT_SET_NO":999,"REV_AT_EPOCH":2847,"BSTAR":6.3378037e-5,"MEAN_MOTION_DOT":8.3e-7,"MEAN_MOTION_DDOT":0},{"OBJECT_NAME":"PRAETORIAN SDA_615","OBJECT_ID":"2025-203P","EPOCH":"2026-04-03T22:25:20.460576","MEAN_MOTION":13.84425939,"ECCENTRICITY":0.00098858,"INCLINATION":81.299,"RA_OF_ASC_NODE":79.3534,"ARG_OF_PERICENTER":38.8946,"MEAN_ANOMALY":321.292,"EPHEMERIS_TYPE":0,"CLASSIFICATION_TYPE":"U","NORAD_CAT_ID":65578,"ELEMENT_SET_NO":999,"REV_AT_EPOCH":2843,"BSTAR":0.00029621225,"MEAN_MOTION_DOT":3.43e-6,"MEAN_MOTION_DDOT":0},{"OBJECT_NAME":"PRAETORIAN SDA_616","OBJECT_ID":"2025-203Q","EPOCH":"2026-04-04T06:41:30.924096","MEAN_MOTION":13.83315459,"ECCENTRICITY":0.00065044,"INCLINATION":81.303,"RA_OF_ASC_NODE":79.3903,"ARG_OF_PERICENTER":50.6844,"MEAN_ANOMALY":309.4887,"EPHEMERIS_TYPE":0,"CLASSIFICATION_TYPE":"U","NORAD_CAT_ID":65579,"ELEMENT_SET_NO":999,"REV_AT_EPOCH":2846,"BSTAR":0.00018529954,"MEAN_MOTION_DOT":2.15e-6,"MEAN_MOTION_DDOT":0}]
