SAPPHIRE                
1 39088U 13009C   26094.05442953  .00000260  00000+0  10562-3 0  9998
2 39088  98.4241 275.2748 0012323 108.2891 251.9636 14.35220259685940
PRAETORIAN SDA_602      
1 65565U 25203A   26092.92938346 -.00022850  00000+0 -20589-1 0  9995
2 65565  81.2997  80.4757 0004925  47.0603 313.0966 13.84155046 28281
PRAETORIAN SDA_603      
1 65566U 25203B   26094.08893069  .00000379  00000+0  33101-3 0  9993
2 65566  81.3002  79.2666 0010420  39.5271 320.6643 13.83896735 28450
PRAETORIAN SDA_604      
1 65567U 25203C   26094.27966347  .00000074  00000+0  56466-4 0  9997
2 65567  81.3023  79.3889 0006541  48.7860 311.3859 13.83037548 28463
PRAETORIAN SDA_605      
1 65568U 25203D   26094.04865298  .00000084  00000+0  65775-4 0  9990
2 65568  81.2987  79.3378 0009076  36.1621 324.0147 13.83532328 28442
PRAETORIAN SDA_606      
1 65569U 25203E   26093.96189286  .00000078  00000+0  59663-4 0  9999
2 65569  81.3022  79.6175 0006771  41.0290 319.1374 13.83531596 28429
PRAETORIAN SDA_607      
1 65570U 25203F   26094.08567064 -.00005653  00000+0 -50729-2 0  9997
2 65570  81.2994  79.2728 0009740  39.0961 321.0898 13.84343348 28452
PRAETORIAN SDA_608      
1 65571U 25203G   26094.03810659  .00000085  00000+0  65565-4 0  9992
2 65571  81.2975  79.4491 0006984  48.0301 312.1449 13.83890312 28434
PRAETORIAN SDA_609      
1 65572U 25203H   26094.28461126  .00000337  00000+0  29115-3 0  9991
2 65572  81.3019  79.2237 0007813  40.4472 319.7265 13.84301339 28478
PRAETORIAN SDA_610      
1 65573U 25203J   26094.09358497  .00000065  00000+0  47753-4 0  9994
2 65573  81.2977  79.3624 0007468  44.1937 315.9815 13.83913136 28444
PRAETORIAN SDA_611      
1 65574U 25203K   26094.27985437  .00000185  00000+0  15787-3 0  9999
2 65574  81.2977  79.2887 0006675  51.3968 308.7786 13.83299302 28469
PRAETORIAN SDA_612      
1 65575U 25203L   26094.21718260  .00000327  00000+0  27858-3 0  9992
2 65575  81.2999  79.1151 0010142  39.2586 320.9305 13.85029144 28473
PRAETORIAN SDA_613      
1 65576U 25203M   26094.19146112  .00000078  00000+0  60930-4 0  9993
2 65576  81.2968  79.3238 0006680  45.3514 314.8185 13.82945101 28452
PRAETORIAN SDA_614      
1 65577U 25203N   26094.19248864  .00000083  00000+0  63378-4 0  9996
2 65577  81.2983  79.1974 0008019  39.4409 320.7331 13.84769038 28476
PRAETORIAN SDA_615      
1 65578U 25203P   26093.93426459  .00000343  00000+0  29621-3 0  9997
2 65578  81.2990  79.3534 0009885  38.8946 321.2920 13.84425939 28435
PRAETORIAN SDA_616      
1 65579U 25203Q   26094.27883014  .00000215  00000+0  18530-3 0  9995
2 65579  81.3030  79.3903 0006504  50.6844 309.4887 13.83315459 28463
